Name,Address,City,State,Postal Code,Phone
Northeast Children's Dentistry,147 Summit Centre Dr,Columbia,SC,29229,(803) 865-1421
Mays DMD McEntire Ms,140 Summit Centre Dr,Columbia,SC,29229,(803) 217-0066
North Springs Dentistry,126 Professional Park Rd,Columbia,SC,29229,(803) 736-9392
Aspen Dental,10266 Two Notch Rd,Columbia,SC,29229,(803) 814-3354
North Springs Dentistry,2000 Clemson Rd,Columbia,SC,29229,(803) 736-9942
C Thomas Fitts III DMD,4415 Hard Scrabble Rd,Columbia,SC,29229,(803) 788-5377
Wildewood Dental Care,10136 Two Notch Rd,Columbia,SC,29229,(803) 788-0099
Bradford Smith DDS,1120 Sparkleberry Lane Ext,Columbia,SC,29223,(803) 462-3662
Rice Creek Family Dentistry,101 Rice Bent Way,Columbia,SC,29229,(803) 788-2676
Northeast Family Cosmetic & Implant Dentistry,118 N Brickyard Rd,Columbia,SC,29223,(803) 736-1336
E Johnson Karen DDS Mhs,118 N Brickyard Rd,Columbia,SC,29223,(803) 699-7933
Sandhills Dentistry,126 Barton Creek Ct,Columbia,SC,29229,(803) 462-0249
Northeast Columbia Family Dentistry,9610 Two Notch Rd,Columbia,SC,29223,(803) 788-0976
Sandhills Periodontics,9600 Two Notch Rd,Columbia,SC,29223,(803) 788-9715
Jones M Fort DMD,9600 Two Notch Rd,Columbia,SC,29223,(803) 788-3707
Walker Dental Care,225 Longtown Rd,Columbia,SC,29229,(803) 865-9919
Aesthetic Smile Studio,120 Sparkleberry Crossing Rd,Columbia,SC,29229,(803) 957-3005
Koenig Mace T Family Dentistry,100 Pontiac Business Center Dr,Elgin,SC,29045,(803) 865-7871
Donahue James M Drdntst,18 Office Park Ct,Columbia,SC,29223,(803) 788-7300
Johnson Joel,9 Office Park Ct,Columbia,SC,29223,(803) 788-2555
Dr. Richard E. Boyd and Associates,5 Office Park Ct,Columbia,SC,29223,(803) 788-7000
Swick DDS James,9353 Two Notch Rd,Columbia,SC,29223,(803) 788-5360
Northeast Oral & Maxillofacial Surgery Center,9310 Two Notch Rd,Columbia,SC,29223,(803) 699-5900
Keith P Straka DDS,9165 Two Notch Rd,Columbia,SC,29223,(803) 788-2560
Andrew G Gambrell DMD,9020 Farrow Rd,Columbia,SC,29203,(803) 419-5002
Amy Ellis Green DMD,8905 Two Notch Rd,Columbia,SC,29223,(803) 788-9593
James G Moore DDS,700 Rabon Rd,Columbia,SC,29203,(803) 865-0645
Gregg W McKenzie DDS,124 Alpine Cir,Columbia,SC,29223,(803) 262-2292
Downing Paul R DMD PC,121 Alpine Cir,Columbia,SC,29223,(803) 736-9991
Richard M Kline DMD,120 Alpine Cir,Columbia,SC,29223,(803) 699-1560
Philip M Joseph DMD,116 Atrium Way,Columbia,SC,29223,(803) 699-2600
Berger Dental Group,2521 Main St,Elgin,SC,29045,(803) 438-1347
David Anderson DDS,7711 Trenholm Road Ext,Columbia,SC,29223,(803) 865-2602
Carolina Children's Dentistry,7701 Trenholm Road Ext,Columbia,SC,29223,(803) 736-6000
Lisa M Cherry DDS,7701 Trenholm Road Ext,Columbia,SC,29223,(803) 736-1087
Washington Kent W,7621 Trenholm Road Ext,Columbia,SC,29223,(803) 699-9989
Brown Kerry White DDS,224 O'Neil Ct,Columbia,SC,29223,(803) 699-9191
Northeast Dental Associates,7346 Parklane Rd,Columbia,SC,29223,(803) 788-6691
Columbia Oral & Maxillofacial Surgery,611 O'Neil Ct,Columbia,SC,29223,(803) 736-4343
Fred L Sykes DDS,7024 Brookfield Rd,Columbia,SC,29223,(803) 419-1327
Michael R Littlejohn DDS,7020 Brookfield Rd,Columbia,SC,29223,(803) 788-4547
Kim Kyong H,6941 Trenholm Rd,Columbia,SC,29206,(803) 743-9894
Hogan Donald W,7007 Brookfield Rd,Columbia,SC,29223,(803) 788-7424
Charles Flowers DMD,7007 Brookfield Rd,Columbia,SC,29223,(803) 787-6646
Premier Dentistry of Blythewood,213 Main St,Blythewood,SC,29016,(803) 754-9545
Blythewood Dentistry,205 Blythewood Rd,Blythewood,SC,29016,(803) 691-4430
Blythewood Village Dental Associates - Blythewood,745 University Village Dr,Blythewood,SC,29016,(803) 754-9160
Stockton Family & Cosmetic Dentistry,5219 Two Notch Rd,Columbia,SC,29204,(803) 735-9446
Kool Smiles,5422 Forest Dr,Columbia,SC,29206,(803) 753-8061
Berger Dental Group,5251 Forest Dr,Columbia,SC,29206,(803) 787-9793
David M Lovit DMD,5115 Forest Dr,Columbia,SC,29206,(803) 787-4900
Forest Drive Dental Care Pa - Joanna Silver Dover, DMD,5101 Forest Dr,Columbia,SC,29206,(803) 782-8786
Columbia Dental Care,4702 Forest Dr,Columbia,SC,29206,(803) 738-2424
G Alex Jenkins DDS,5107 Trenholm Rd,Columbia,SC,29206,(803) 782-8931
Lockhart W Alison DMD,5107 Trenholm Rd,Columbia,SC,29206,(803) 782-9030
R Sims Tompkins DMD,5250 Clemson Ave,Columbia,SC,29206,(803) 738-9715
H Gene Smith DMD,12 Monckton Blvd,Columbia,SC,29206,(803) 738-9543
360 Dental,6 Monckton Blvd,Columbia,SC,29206,(803) 988-0098
PM Group,6 Monckton Blvd,Columbia,SC,29206,(803) 782-0276
Small Smiles Dental Centers,3000 Two Notch Rd,Columbia,SC,29204,(803) 691-9930
Manly E Hutchinson III DMD,4902 Trenholm Rd,Columbia,SC,29206,(803) 782-3100
Family Dental,2941 Two Notch Rd,Columbia,SC,29204,(803) 251-2260
Todd Barrett DMD,4023 Forest Dr,Columbia,SC,29204,(803) 782-7722
Carolina Restorative & Implant Dentistry,4019 Forest Dr,Columbia,SC,29204,(803) 787-5445
Benjamin F Thomas DMD,5255 N Main St,Columbia,SC,29203,(803) 754-1110
Green Orthodontics,3741 Landmark Dr,Columbia,SC,29204,(803) 787-1601
Carolina Periodontology South,2120 N Beltline Blvd,Columbia,SC,29204,(803) 782-0528
Heath M Stewart DMD,1755 Saint Julian Pl,Columbia,SC,29204,(803) 254-2972
Dr. Jarrett Newsome DMD,1701 Saint Julian Pl,Columbia,SC,29204,(803) 254-2465
Cleveland T Smith DMD,1701 Saint Julian Pl,Columbia,SC,29204,(803) 771-6393
Middleburg Oral Surgery,2724 Middleburg Dr,Columbia,SC,29204,(803) 251-1245
DR James A Green III DDS Family Dentistry,2719 Middleburg Dr,Columbia,SC,29204,(803) 988-0201
Charles T Hazelrigg III DMD,1713 Devonshire Dr,Columbia,SC,29204,(803) 779-2427
Eau Claire Cooperative Centers Inc-Cooperative,4100 N Main St,Columbia,SC,29203,(803) 691-3063
Barbee Dental,2757 Laurel St,Columbia,SC,29204,(803) 223-9394
John F Burton DDS,10 Richland Medical Park Dr,Columbia,SC,29203,(803) 434-6567
Ernest E Dowdy Jr DDS,3506 Medical Dr,Columbia,SC,29203,(803) 799-5700
Roderick D Smith DMD,101 Standard Warehouse Rd,Lugoff,SC,29078,(803) 438-3449
Richard E Boyd DMD Ms,4233 Devine St,Columbia,SC,29205,(803) 743-9200
W Trent Gillespie DMD Mph,618 Ott Rd,Columbia,SC,29205,(803) 256-1156
University Dental,3126 Devine St,Columbia,SC,29205,(803) 252-8101
Columbia Oral Health Clinic,3425 N Main St,Columbia,SC,29203,(803) 779-4667
A Beautiful Smile & Fresh Breath Center,2020 Laurel St,Columbia,SC,29204,(803) 254-0220
South Carolina Dental Center,2020 Laurel St,Columbia,SC,29204,(803) 254-4543
Tina Vu-Heaton,1211 Greenlawn Dr,Columbia,SC,29209,(803) 783-1892
Chris Ahdrews Dental,6100 Garners Ferry Rd,Columbia,SC,29209,(803) 783-4275
Cooper & Cooper,1415 Pine St,Columbia,SC,29204,(803) 254-7791
Julie O Wehman DMD,1320 Elmtree Rd,Columbia,SC,29209,(803) 783-9900
Charles W Strauss Dntst,200 Gills Creek Pkwy,Columbia,SC,29209,(803) 695-2884
Friendly Dental Center of Columbia,145 Pelham Dr,Columbia,SC,29209,(803) 661-8412
Cottingham Family Dentistry,6420 Garners Ferry Rd,Columbia,SC,29209,(803) 776-4234
Jordan M DMD,3727 Rosewood Dr,Columbia,SC,29205,(803) 771-7695
Erica Johannes DDS,2414 Devine St,Columbia,SC,29205,(803) 771-4524
Palmetto Dental Services,1330 Gregg St,Columbia,SC,29201,(803) 254-1911
Shandon Family Dentistry,2329 Devine St,Columbia,SC,29205,(803) 708-8536
Affordable Dentistry,2329 Devine St,Columbia,SC,29205,(803) 708-8539
Metropol John H and Associates,1700 Henderson St,Columbia,SC,29201,(803) 799-1172
Mary G Metropol DMD,1700 Henderson St,Columbia,SC,29201,(803) 779-2633
Columbia Periodontal Associates,2325 Devine St,Columbia,SC,29205,(803) 252-2844
Crystal Smiles,1412 Barnwell St,Columbia,SC,29201,(803) 256-2333
Joseph Philip M,211 Veterans Rd,Columbia,SC,29209,(803) 695-0075
Capitol Dental Group,1106 Anthony Ave,Columbia,SC,29201,(803) 252-4500
Dana D Kahaly DMD,1601 Hampton St,Columbia,SC,29201,(803) 799-9281
Jennings Ned S,1415 Blanding St,Columbia,SC,29201,(803) 254-9045
Brown Family Dentistry,741 Greenlawn Dr,Columbia,SC,29209,(803) 695-7623
Aspen Dental,7510 Garners Ferry Rd,Columbia,SC,29209,(803) 814-3353
Dentaquest,1333 Main St,Columbia,SC,29201,(803) 758-0460
Allyson C Varn DMD,25 Ward Rd,Lugoff,SC,29078,(803) 438-1845
Merri M Gandhi DMD,1116 Atlas Rd,Columbia,SC,29209,(803) 783-0525
Austin Meares DMD,529 Richland St,Columbia,SC,29201,(803) 748-8797
Benetta G Bell DMD,515 Richland St,Columbia,SC,29201,(803) 779-9666
Miller Willie L DDS Family Dentistry,9110 Garners Ferry Rd,Hopkins,SC,29061,(803) 783-2686
Joseph Mack DDS,2007 Broad River Rd,Columbia,SC,29210,(803) 772-1548
Affordable Dentures,2123 Broad River Rd,Columbia,SC,29210,(803) 798-2377
Kids First Dental,2700 Broad River Rd,Columbia,SC,29210,(803) 772-4949
Columbia Dentistry,421 Bush River Rd,Columbia,SC,29210,(855) 254-7653
A Brighter Smile,1410 Colonial Life Blvd W,Columbia,SC,29210,(803) 239-2200
Richard C Yung DDS,1140 Saint Andrews Rd,Columbia,SC,29210,(803) 798-3204
Thomas R Edmonds DMD,1109 B Ave,West Columbia,SC,29169,(803) 796-8955
Kenley J Loftis DMD,1429 Sunset Blvd,West Columbia,SC,29169,(803) 794-8741
Endodontics Carolina,130 Stonemark Ln,Columbia,SC,29210,(803) 798-8476
Jackson Smile Studio,3790 Fernandina Rd,Columbia,SC,29210,(803) 750-0044
First Smiles Dental PC,1670 Springdale Dr,Camden,SC,29020,(803) 432-3338
Kimberly J Holliday DMD,2617 Ashland Rd,Columbia,SC,29210,(803) 772-9994
Columbia Family Dental Center,2315 Sunset Blvd,West Columbia,SC,29169,(803) 791-4398
Joel Z Price Jr DMD,1534 Platt Springs Rd,West Columbia,SC,29169,(803) 794-5555
Childrens Dental Group of SC,7210 Broad River Rd,Irmo,SC,29063,(803) 781-5141
Todd B Elliott DMD,111 Professional Ave,West Columbia,SC,29169,(803) 796-0677
George H Fann DMD,111 Professional Ave,West Columbia,SC,29169,(803) 796-0666
Crowns Now Denistry Irmo,7241 Broad River Rd,Irmo,SC,29063,(803) 732-3650
Heath M Stewart DMD,190 Parkridge Dr,Columbia,SC,29212,(803) 749-0988
Midlands Oral & Maxillofacial Surgery,190 Parkridge Dr,Columbia,SC,29212,(803) 732-1328
Aspen Dental,368 Harbison Blvd,Columbia,SC,29212,(803) 814-3247
Collins Alexis P. DMD And Nyland James J DDS,392 Saint Andrews Rd,Columbia,SC,29210,(803) 772-7302
Gary W Raymond DDS,113 Medical Cir,West Columbia,SC,29169,(803) 796-9312
Central Carolina Endodontics,206 Medical Cir,West Columbia,SC,29169,(803) 791-1177
Z Vance Morgan IV DMD Ms,175 Medical Cir,West Columbia,SC,29169,(803) 794-3300
Lexington Dental,115 Medical Cir,West Columbia,SC,29169,(803) 794-4472
Dutch Fork Family Dentistry,7436 Broad River Rd,Irmo,SC,29063,(803) 749-3333
Davis Orthodontics,143 Medical Cir,West Columbia,SC,29169,(803) 739-1600
Dennis W Newton DDS,159 Medical Cir,West Columbia,SC,29169,(803) 794-7520
A Crosby Livingston Jr DMD,1028 Kinley Rd,Irmo,SC,29063,(803) 781-0880
Eddie Taylor Jr DMD,1032 Kinley Rd,Irmo,SC,29063,(803) 781-3232
Thomas M Major DMD,3515 Bush River Rd,Columbia,SC,29210,(803) 798-0344
Columbia Periodontal Associates,3527 Bush River Rd,Columbia,SC,29210,(803) 798-0894
Childrens General Dentistry,2842 Sunset Blvd,West Columbia,SC,29169,(803) 939-9399
Midlands Family Dentistry,2844 Sunset Blvd,West Columbia,SC,29169,(803) 731-0803
Brown Kerry White DDS,275 Harbison Blvd,Columbia,SC,29212,(803) 749-4746
Columbia Smiles,1801 Charleston Hwy,Cayce,SC,29033,(803) 794-5430
Thomas H Pitts DMD,138 Leisure Ln,Columbia,SC,29210,(803) 750-5494
Dupuis R Creig,142 Leisure Ln,Columbia,SC,29210,(803) 731-9556
DDS Imaging Services,112 Saluda Ridge Ct,West Columbia,SC,29169,(803) 739-4805
Associates In Oral & Maxillofacial Surgery,112 Saluda Ridge Ct,West Columbia,SC,29169,(803) 796-5791
Smile Columbia Dentistry,690 Columbiana Dr,Columbia,SC,29212,(803) 781-9090
Sherry Powell DMD,120 Midlands Ct,West Columbia,SC,29169,(803) 739-0390
Southern Dental,3244 Sunset Blvd,West Columbia,SC,29169,(803) 794-2273
Mark G Pelletier DDS,900 Lake Murray Blvd,Irmo,SC,29063,(803) 781-7901
Harbison Hill Dentistry,131 Harbison Blvd,Columbia,SC,29212,(803) 661-9529
Magnolia Dental Health Center - Dr. Karen Kramer,6156 Saint Andrews Rd,Columbia,SC,29212,(803) 731-5155
DR Klinar Karl S,6320 Saint Andrews Rd,Columbia,SC,29212,(803) 772-5161
G Franklin Causey Jr DMD,7319 College St,Irmo,SC,29063,(803) 781-1990
Midlands Dental,9 Surrey Ct,Columbia,SC,29212,(803) 772-5628
Joseph Dental Associates,1301 Monument Sq,Camden,SC,29020,(803) 432-7627
West Columbia Dental Center,3935 Sunset Blvd,West Columbia,SC,29169,(803) 794-6464
Giles Family Dentistry,400 Rutledge St,Camden,SC,29020,(803) 425-1157
R Sims Tompkins DMD,1305 S Woodstream Rd,Columbia,SC,29212,(803) 781-5253
Associates In Oral & Maxillofacial Surgery,7033 Saint Andrews Rd,Columbia,SC,29212,(803) 781-3321
Burn William A III DMD PC,7897 Broad River Rd,Irmo,SC,29063,(803) 781-2439
Gregory J Wych DDS,7505 Saint Andrews Rd,Irmo,SC,29063,(803) 781-1600
Leslie L Pitner DDS,5953 Wescott Rd,Columbia,SC,29212,(803) 781-5225
Irmo Smiles,5945 Wescott Rd,Columbia,SC,29212,(803) 781-2930
Edwards John L,1380 Lake Murray Blvd,Irmo,SC,29063,(803) 732-9149
Tom Kelly DDS,200 N Royal Tower Dr,Irmo,SC,29063,(803) 732-3090
John Stephenson DMD,402 Dicey Ford Rd,Camden,SC,29020,(803) 425-1644
Kenneth W Carson DDS,400 Dicey Ford Rd,Camden,SC,29020,(803) 432-4202
Raman Orthodontics,1600 Lake Murray Blvd,Columbia,SC,29212,(803) 749-4001
Carolina Aesthetic & Restorative Dentistry,1612 Lake Murray Blvd,Columbia,SC,29212,(803) 407-6511
Brian C O'Leary DMD Ms,1544 Old Tamah Rd,Irmo,SC,29063,(803) 732-7223
Chrysostom Family Dentistry,3308 Platt Springs Rd,West Columbia,SC,29170,(803) 796-7934
Albert K Roberts Jr DMD,549 Oak Dr,Lexington,SC,29073,(803) 356-1700
Oca,1117 Weston Rd,Hopkins,SC,29061,(803) 783-4804
Orthodontic Specialist of Carolina,1117 Weston Rd,Hopkins,SC,29061,(803) 776-5754
Albert K Roberts Jr DMD,4419 Augusta Rd,Lexington,SC,29073,(803) 957-5770
Leo Otis Hall DMD,4881 Sunset Blvd,Lexington,SC,29072,(803) 359-7100
Chandler Charley & Happy,481 Cantey Ln,Rembert,SC,29128,(803) 432-5633
Albert K Roberts Jr DMD,109 Timbermill Dr,Lexington,SC,29073,(803) 957-5770
Fairfield Family Dentistry,123 US Highway 321 Byp S,Winnsboro,SC,29180,(803) 815-1077
Ballentine Family Dentistry,3533 Dreher Shoals Rd,Irmo,SC,29063,(803) 732-3001
Airport Family Dentistry,3901 Edmund Hwy,West Columbia,SC,29170,(803) 755-3953
Philip C Wilkins DMD,124 N Congress St,Winnsboro,SC,29180,(803) 635-6162
Distinctive Dentistry,11107 Broad River Rd,Irmo,SC,29063,(803) 749-3980
Crocker Dental,2441 Mineral Springs Rd,Lexington,SC,29072,(803) 356-0700
Three Fountains Family Dental,2248 Pine St,West Columbia,SC,29170,(803) 755-0039
Palmetto Dental Associates,216 Palmetto Park Blvd,Lexington,SC,29072,(803) 808-0888
Midlands Endodontics,108 Palmetto Park Blvd,Lexington,SC,29072,(803) 808-1110
Lexington Facial & Oral Surgery,230 Saluda Springs Rd,Lexington,SC,29072,(803) 951-7343
Martin Anthony C DMD,111 Obrian Way,Irmo,SC,29063,(803) 749-6072
James B Laney DMD,1356 N Lake Dr,Lexington,SC,29072,(803) 951-0323
Jaime Cross Gomez DMD,139 Whiteford Way,Lexington,SC,29072,(803) 951-9100
Aesthetic Smile Studio,1283 N Lake Dr,Lexington,SC,29072,(803) 957-3005
James W Denny DMD,1197 N Lake Dr,Lexington,SC,29072,(803) 358-2211
Whitehead James D,203 Mallard Lakes Dr,Lexington,SC,29072,(803) 996-5100
Aspen Dental,5540 Sunset Blvd,Lexington,SC,29072,(877) 734-9857
Amendola Richard,458 Old Cherokee Rd,Lexington,SC,29072,(803) 359-6130
Northwood Dental Associates,510 Northwood Rd,Lexington,SC,29072,(803) 359-3215
Robert F Garrison DMD,502 N Lake Dr,Lexington,SC,29072,(803) 359-4480
Lake Murray Dentistry,602 E Main St,Lexington,SC,29072,(803) 957-2440
G Rick Singh DMD,203 N Lake Dr,Lexington,SC,29072,(803) 356-1606
Leo Otis Hall DMD,113 Belle Chase Dr,Lexington,SC,29072,(803) 359-7758
Health Promotion Specialist,115 Maxie Rd,Lexington,SC,29072,(803) 808-2304
Associates In Oral & Maxillofacial Surgery,109 Reed Ave,Lexington,SC,29072,(803) 957-6113
Cariens Michael L,332 Old Chapin Rd,Lexington,SC,29072,(803) 359-7752
Philip E Smith DMD,101 Sharon Lake Ct,Lexington,SC,29072,(803) 359-1955
Advanced Dental Care/Charles G. Bumgardner DMD,948 Old Cherokee Rd,Lexington,SC,29072,(803) 356-6030
Brad Pitts Family and Cosmetic Dentistry,117 Old Chapin Rd,Lexington,SC,29072,(803) 808-1778
Columbia Periodontal Associates,575 Old Chapin Rd,Lexington,SC,29072,(803) 358-3021
Elise A Howell DMD,609 Old Chapin Rd,Lexington,SC,29072,(803) 808-0302
South Lake Family Dentistry,1223 S Lake Dr,Lexington,SC,29073,(803) 520-5580
White Knoll Dentistry,5545 Platt Springs Rd,Lexington,SC,29073,(803) 359-3245
Lexington Family Smiles,2001 Augusta Hwy,Lexington,SC,29072,(803) 951-0991
Dental Team of Sumter,5635 Broad St,Sumter,SC,29154,(803) 494-8466
John W Pitner,814 Old Bush River Rd,Chapin,SC,29036,(803) 345-6767
Charter Oak Cosmetic & Family Dentistry,135 Charter Oak Rd,Lexington,SC,29072,(803) 785-4040
Jon D Smith DDS,110 Charter Oak Rd,Lexington,SC,29072,(803) 359-6143
Lake Murray Pediatric Dentistry,740 Old Lexington Hwy,Chapin,SC,29036,(803) 345-2483
Chapin Dental Associates,425 Lexington Ave,Chapin,SC,29036,(803) 345-5526
Dominick Wayde,123 Amicks Ferry Rd,Chapin,SC,29036,(803) 345-3599
Edith Mullins Gore DMD,137 Amicks Ferry Rd,Chapin,SC,29036,(803) 945-9016
Lakeside Dentistry,137 Amicks Ferry Rd,Chapin,SC,29036,(803) 345-5811
Stephen F Linder DMD,201 Amicks Ferry Rd,Chapin,SC,29036,(803) 345-9734
S Britt Holstein Jr DMD,1409 Chapin Rd,Chapin,SC,29036,(803) 345-5526
Ray Family & Cosmetic Dentistry,625 Constitution Dr,Sumter,SC,29154,(803) 905-2634
Robert S Hegler DMD,1783 Kershaw Country Club Rd,Kershaw,SC,29067,(803) 475-6909
James D Dailey Jr DMD,1110 Boardwalk,Sumter,SC,29150,(803) 469-7735
Eddie C Durant Sr DDS,3904 Wedgefield Rd,Sumter,SC,29154,(803) 494-3531
Heritage Family Dentistry,533 Saint Matthews Rd,Swansea,SC,29160,(803) 568-2077
R Devon Parks Jr DMD,25 Shem Cv N,Sumter,SC,29150,(803) 905-6623
Dental Implant Center Of Sumter,1210 Wilson Hall Rd,Sumter,SC,29150,(803) 905-4404
Palmetto Family And Cosmetic Dentistry,2590 Tahoe Dr,Sumter,SC,29150,(803) 469-3555
William N Coulter DMD,2590 Lin Do Ct,Sumter,SC,29150,(803) 905-4321
Catherine M Zybak DMD,2565 Lin Do Ct,Sumter,SC,29150,(803) 905-5280
G E Rabon DMD Fagd,669 W Wesmark Blvd,Sumter,SC,29150,(803) 905-3567
Davant Orthodontics,669 W Wesmark Blvd,Sumter,SC,29150,(803) 905-4455
Michael W Nimmich DMD,2575 Lin Do Ct,Sumter,SC,29150,(803) 905-4433
Calvin V Boykin DMD,780 Oak Brook Blvd,Sumter,SC,29150,(803) 469-2532
John M Stephenson DMD,40 Wesmark Ct,Sumter,SC,29150,(803) 905-8072
Aesthetic Dental Arts,364 W Wesmark Blvd,Sumter,SC,29150,(803) 968-9028
Wesmark Family Dentistry,360 W Wesmark Blvd,Sumter,SC,29150,(803) 469-2060
Aspen Dental,1257 Broad St,Sumter,SC,29150,(877) 727-1459
Richard S Marks DMD,2819 Hathaway Dr,Sumter,SC,29154,(803) 469-9168
Marshall L Wallace DMD,23 Pathfinder Dr,Sumter,SC,29150,(803) 469-2233
Richard S Marks DMD,5 Professional Ct,Sumter,SC,29150,(803) 469-2044
Marshall L Wallace DMD,3 Professional Ct,Sumter,SC,29150,(803) 469-9461
Washington Ray Jr,2630 Pintail Dr,Sumter,SC,29150,(803) 469-0840
Kool Smiles,1121 Broad St,Sumter,SC,29150,(803) 436-5640
McLaughlin Frances,17 Chappell Ct,Sumter,SC,29150,(803) 775-0089
John Summers DDS,1944 Priceville Rd,Gilbert,SC,29054,(803) 892-3155
Towery Michael,742 Reynolds Rd,Sumter,SC,29150,(803) 775-6076
Sumter Family Dental Center,740 Bultman Dr,Sumter,SC,29150,(803) 773-3328
J Keith Rabon DMD,227 Alice Dr,Sumter,SC,29150,(803) 774-5300
Epps Orthodontics,685 N Guignard Dr,Sumter,SC,29150,(803) 775-5500
James D Dailey Jr DMD,616 Bultman Dr,Sumter,SC,29150,(803) 773-7515
McMaster Dental,108 S Cleveland St,Kershaw,SC,29067,(803) 475-9440
Robert C Segars DMD,513 N Guignard Dr,Sumter,SC,29150,(803) 775-1684
Doc Holliday Family Dentistry,541 Oxford St,Sumter,SC,29150,(803) 418-0362
Robert S Hegler DMD,104 S Ashe St,Kershaw,SC,29067,(803) 475-2644
Sumter Family Dental Center,852 W Liberty St,Sumter,SC,29150,(803) 795-4268
John R Howell Jr DDS,114 E Hilton St,Kershaw,SC,29067,(803) 475-6052
Carolina Children's Dentistry,500 Physicians Ln,Sumter,SC,29150,(803) 775-4793
John R Howell Jr DDS,6323 Kershaw Camden Hwy,Kershaw,SC,29067,(803) 273-3705
C Roberts Lake DMD,735 Harry C Raysor Dr,Saint Matthews,SC,29135,(803) 874-2243
Allison Reeves DMD,516 W Liberty St,Sumter,SC,29150,(803) 773-9300
Richard L McDaniel DMD Mph,322 Church St,Leesville,SC,29070,(803) 532-9065
Walden Robert D,113 Baskin Ave,Bishopville,SC,29010,(803) 484-5960
Forest Evans And Mark Perry,101 Harris St,Bishopville,SC,29010,(803) 484-6041
Holland Enterprises,306 N Main St,Bishopville,SC,29010,(803) 484-5633
Robert E Shannon Jr DDS,1085 Great Falls Hwy,Chester,SC,29706,(803) 377-3583
Meeting Street Dentistry,1440 W Meeting St,Lancaster,SC,29720,(803) 285-1571
Aimee Melinda Brown DMD,1241 Colonial Commons Ct,Lancaster,SC,29720,(803) 285-6925
Plantation Pointe Dentistry,1025 W Meeting St,Lancaster,SC,29720,(803) 286-6533
Center For Oral & Maxillofacial Surgery,901 W Meeting St,Lancaster,SC,29720,(803) 285-9492
Mid-Carolina Dental Center,1012 N Woodland Dr,Lancaster,SC,29720,(803) 285-7645
Jacob Richard P DMD,821 W Meeting St,Lancaster,SC,29720,(803) 286-6455
Rucker Dentistry,406 Chesterfield Ave,Lancaster,SC,29720,(803) 283-9969
Rucker Dentistry,618 Hilldale Dr,Lancaster,SC,29720,(803) 286-5544
Andrew J Walker DMD,1320 Highway 9 Byp W,Lancaster,SC,29720,(803) 283-9998
Kids First Dental,1212 Highway 9 Byp W,Lancaster,SC,29720,(803) 283-1103
Murdock Orthodontics,727 Gillsbrook Rd,Lancaster,SC,29720,(803) 285-7923
Robert E Shannon Jr DDS,754 Wilson St,Chester,SC,29706,(803) 377-1997
Chester Dental Care,726 Wilson St,Chester,SC,29706,(803) 581-2345
Laura G. Walls Family Dentistry,533 W Church St,Batesburg,SC,29006,(803) 532-3331
Orangeburg Oral Surgery & Implant Center,1175 Cook Rd,Orangeburg,SC,29118,(803) 534-5444
Cremeans Family Dentistry,701 Wilson St,Chester,SC,29706,(803) 581-3555
Orthodontic Specialists Of Carolina PC,2847 Pelham Ct,Orangeburg,SC,29118,(803) 531-8890
John W Rheney III DMD,882 Cook Rd,Orangeburg,SC,29118,(803) 536-9503
Central Carolina Endodontics,888 Cook Rd,Orangeburg,SC,29118,(803) 516-0577
Brown Robert L DMD/Dntst,1504 Wilson Rd,Newberry,SC,29108,(803) 276-9343
III Clifton Jordan DDS,2197 Saint Matthews Rd,Orangeburg,SC,29118,(803) 531-1601
Edwards William B DMD,1335 Kinard St,Newberry,SC,29108,(803) 276-3367
David B Tevepaugh DMD,2605 Kinard St,Newberry,SC,29108,(864) 276-2084
John Norris Long DMD,2550 Kinard St,Newberry,SC,29108,(803) 405-1111
Erwin R Baker DMD,1307 Hunt St,Newberry,SC,29108,(803) 276-8087
McCartha-Mcclary Orthodontics,2541 Evans St,Newberry,SC,29108,(803) 276-8080
Palmetto Smiles,1108 Calhoun St,Newberry,SC,29108,(803) 276-0940
Al Weatherford DDS,1108 Calhoun St,Newberry,SC,29108,(803) 276-0943
Kool Smiles,1350 Grove Park Dr,Orangeburg,SC,29115,(803) 937-4223
Julian H Fair III DMD,112 Louie St,Wagener,SC,29164,(803) 564-3446
Clarence Williams Jr DMD,275 Main St S,Wagener,SC,29164,(803) 564-6582
Davis Orthodontics,1170 Boulevard St,Orangeburg,SC,29115,(803) 534-9555
Orangeburg Family Dentistry,695 Laurel St,Orangeburg,SC,29115,(803) 536-6440
Clark Family Dentistry,630 Laurel St,Orangeburg,SC,29115,(803) 534-5550
Draffin Craig Jr,312 Rice St,Neeses,SC,29107,(803) 247-5871
M A Ansari DMD,1340 Park St,Orangeburg,SC,29115,(803) 534-2507
Dean Robert A And Associates,338 Saint Paul St,Orangeburg,SC,29115,(803) 534-0056
McMillan Dental Care,941 John C Calhoun Dr,Orangeburg,SC,29115,(803) 531-0021
Richard DDS Conner,946 W Carolina Ave,Hartsville,SC,29550,(843) 383-5126
K Dargan Flowers Jr DMD,756 W Carolina Ave,Hartsville,SC,29550,(843) 332-0623
L A Robinson DMD,9 S Dukes St,Summerton,SC,29148,(803) 485-8521
William N Coulter DMD,38 Edgewood Dr,Manning,SC,29102,(803) 435-4911
Roy A Little III DMD,214 W Home Ave,Hartsville,SC,29550,(843) 332-1331
W Ray Hilton DDS,214 W Home Ave,Hartsville,SC,29550,(843) 332-8511
Dentist Manning Smile Center SC,416 W Boyce St,Manning,SC,29102,(803) 696-4045
Omnitec Dental Arts,124 Mantissa Row,Hartsville,SC,29550,(843) 383-5243
Clarendon Family Dentistry,17 E Hospital St,Manning,SC,29102,(803) 433-8090
Georgina G Coffey DMD,24 Bozard St,Manning,SC,29102,(803) 435-8845
William F Rawlinson Jr DMD,617 S Mill St,Manning,SC,29102,(803) 435-4463
William F Rawlinson Jr DMD,1250 Country Club Cir,Manning,SC,29102,(803) 473-3028
John Moulton DMD,190 Plaza Cir,Santee,SC,29142,(803) 854-2600
Thomas M Hendley DMD,124 S Pearl St,Pageland,SC,29728,(843) 672-2403
Wyman L Shealy DMD,405 W Butler Ave,Saluda,SC,29138,(864) 445-9988
George P Green DMD,5155 Turbeville Hwy,Turbeville,SC,29162,(843) 659-4917
Timmonsville Family Dentistry,101 E Market St,Timmonsville,SC,29161,(843) 346-7511
Wenonah George Haire DMD,611 E Main St,Rock Hill,SC,29730,(803) 324-5214
Phillips Robert C Jr,106 E South Main St,Waxhaw,NC,28173,(704) 843-3952
D C McDuffie III DDS,427 Dave Lyle Blvd S,Rock Hill,SC,29730,(803) 328-0858
Murdock Orthodontics,6237 Carolina Commons Dr,Fort Mill,SC,29707,(803) 548-3232
Smiles In The Sun,6237 Carolina Commons Dr,Fort Mill,SC,29707,(803) 547-9786
Branch Andrew J,514 N Broome St,Waxhaw,NC,28173,(704) 843-3959
Dent Pro Of The Carolinas,505 Pearl St,Waxhaw,NC,28173,(704) 843-3871
Dental Access Carolina,454 Anderson Rd S,Rock Hill,SC,29730,(803) 324-3101
State DDS Regional Administration Office,454 Anderson Rd S,Rock Hill,SC,29730,(803) 329-9626